start=new Date('2022-10-26T00:00:00.000Z').valueOf();
sats=[{"RA_OF_ASC_NODE":"154.5422","COUNTRY_CODE":"US","SEMIMAJOR_AXIS":"6917.887","TLE_LINE1":"1 51957U 22025B   22298.85732259  .00001023  00000-0  82335-4 0  9993","SITE":"AFETR","MEAN_MOTION":"15.08837706","CENTER_NAME":"EARTH","NORAD_CAT_ID":"51957","LAUNCH_DATE":"2022-03-09","OBJECT_TYPE":"PAYLOAD","EPHEMERIS_TYPE":"0","ECCENTRICITY":"0.00014860","MEAN_MOTION_DDOT":"0.0000000000000","RCS_SIZE":"LARGE","BSTAR":"0.00008233500000","PERIAPSIS":"538.724","APOAPSIS":"540.780","REF_FRAME":"TEME","GP_ID":"216155350","ARG_OF_PERICENTER":"61.0378","INCLINATION":"53.2172","MEAN_ANOMALY":"299.0762","TLE_LINE2":"2 51957  53.2172 154.5422 0001486  61.0378 299.0762 15.08837706 35385","PERIOD":"95.438","MEAN_MOTION_DOT":"0.00001023","ELEMENT_SET_NO":"999","TIME_SYSTEM":"UTC","MEAN_ELEMENT_THEORY":"SGP4","FILE":"3633327","OBJECT_ID":"2022-025B","CLASSIFICATION_TYPE":"U","OBJECT_NAME":"STARLINK-3694","DECAY_DATE":null,"EPOCH":"2022-10-25T20:34:32.671776","REV_AT_EPOCH":"3538"},{"CLASSIFICATION_TYPE":"U","DECAY_DATE":null,"OBJECT_NAME":"STARLINK-3692","EPOCH":"2022-10-25T19:20:21.463872","REV_AT_EPOCH":"3537","MEAN_ELEMENT_THEORY":"SGP4","FILE":"3633327","OBJECT_ID":"2022-025C","MEAN_MOTION_DOT":"0.00017546","ELEMENT_SET_NO":"999","TIME_SYSTEM":"UTC","ARG_OF_PERICENTER":"54.5696","INCLINATION":"53.2132","MEAN_ANOMALY":"305.5483","TLE_LINE2":"2 51958  53.2132 154.7839 0002007  54.5696 305.5483 15.08829767 35376","PERIOD":"95.438","RCS_SIZE":"LARGE","BSTAR":"0.00111810000000","PERIAPSIS":"538.388","APOAPSIS":"541.165","GP_ID":"216155101","REF_FRAME":"TEME","OBJECT_TYPE":"PAYLOAD","EPHEMERIS_TYPE":"0","ECCENTRICITY":"0.00020070","MEAN_MOTION_DDOT":"0.0000000000000","SITE":"AFETR","TLE_LINE1":"1 51958U 22025C   22298.80580398  .00017546  00000-0  11181-2 0  9990","MEAN_MOTION":"15.08829767","CENTER_NAME":"EARTH","NORAD_CAT_ID":"51958","LAUNCH_DATE":"2022-03-09","RA_OF_ASC_NODE":"154.7839","COUNTRY_CODE":"US","SEMIMAJOR_AXIS":"6917.912"},{"MEAN_ELEMENT_THEORY":"SGP4","FILE":"3633327","OBJECT_ID":"2022-025D","CLASSIFICATION_TYPE":"U","DECAY_DATE":null,"OBJECT_NAME":"STARLINK-3704","EPOCH":"2022-10-25T20:39:50.267808","REV_AT_EPOCH":"3538","ARG_OF_PERICENTER":"53.6896","MEAN_ANOMALY":"306.4268","INCLINATION":"53.2160","TLE_LINE2":"2 51959  53.2160 154.5190 0001862  53.6896 306.4268 15.08834336 35386","PERIOD":"95.438","MEAN_MOTION_DOT":"-0.00001549","ELEMENT_SET_NO":"999","TIME_SYSTEM":"UTC","OBJECT_TYPE":"PAYLOAD","EPHEMERIS_TYPE":"0","ECCENTRICITY":"0.00018620","MEAN_MOTION_DDOT":"0.0000000000000","BSTAR":"-0.00007922700000","RCS_SIZE":"LARGE","PERIAPSIS":"538.475","APOAPSIS":"541.051","REF_FRAME":"TEME","GP_ID":"216156352","RA_OF_ASC_NODE":"154.5190","COUNTRY_CODE":"US","SEMIMAJOR_AXIS":"6917.898","TLE_LINE1":"1 51959U 22025D   22298.86099847 -.00001549  00000-0 -79227-4 0  9996","SITE":"AFETR","CENTER_NAME":"EARTH","MEAN_MOTION":"15.08834336","NORAD_CAT_ID":"51959","LAUNCH_DATE":"2022-03-09"},{"NORAD_CAT_ID":"51960","LAUNCH_DATE":"2022-03-09","TLE_LINE1":"1 51960U 22025E   22298.85363013 -.00000898  00000-0 -38330-4 0  9992","SITE":"AFETR","CENTER_NAME":"EARTH","MEAN_MOTION":"15.08842679","SEMIMAJOR_AXIS":"6917.872","RA_OF_ASC_NODE":"154.5549","COUNTRY_CODE":"US","APOAPSIS":"540.914","REF_FRAME":"TEME","GP_ID":"216156583","PERIAPSIS":"538.560","RCS_SIZE":"LARGE","BSTAR":"-0.00003833000000","MEAN_MOTION_DDOT":"0.0000000000000","OBJECT_TYPE":"PAYLOAD","EPHEMERIS_TYPE":"0","ECCENTRICITY":"0.00017010","ELEMENT_SET_NO":"999","TIME_SYSTEM":"UTC","MEAN_MOTION_DOT":"-0.00000898","TLE_LINE2":"2 51960  53.2168 154.5549 0001701  40.9844 319.1276 15.08842679 35387","PERIOD":"95.437","INCLINATION":"53.2168","MEAN_ANOMALY":"319.1276","ARG_OF_PERICENTER":"40.9844","REV_AT_EPOCH":"3538","EPOCH":"2022-10-25T20:29:13.643232","OBJECT_NAME":"STARLINK-3691","DECAY_DATE":null,"CLASSIFICATION_TYPE":"U","OBJECT_ID":"2022-025E","FILE":"3633327","MEAN_ELEMENT_THEORY":"SGP4"},{"ECCENTRICITY":"0.00017000","EPHEMERIS_TYPE":"0","OBJECT_TYPE":"PAYLOAD","MEAN_MOTION_DDOT":"0.0000000000000","PERIAPSIS":"538.592","REF_FRAME":"TEME","GP_ID":"216154851","APOAPSIS":"540.944","BSTAR":"-0.00007901000000","RCS_SIZE":"LARGE","COUNTRY_CODE":"US","RA_OF_ASC_NODE":"154.7981","SEMIMAJOR_AXIS":"6917.903","LAUNCH_DATE":"2022-03-09","NORAD_CAT_ID":"51961","CENTER_NAME":"EARTH","MEAN_MOTION":"15.08832566","TLE_LINE1":"1 51961U 22025F   22298.80211924 -.00001545  00000-0 -79010-4 0  9991","SITE":"AFETR","OBJECT_ID":"2022-025F","MEAN_ELEMENT_THEORY":"SGP4","FILE":"3633327","EPOCH":"2022-10-25T19:15:03.102336","REV_AT_EPOCH":"3537","CLASSIFICATION_TYPE":"U","DECAY_DATE":null,"OBJECT_NAME":"STARLINK-3689","INCLINATION":"53.2177","MEAN_ANOMALY":"289.8164","PERIOD":"95.438","TLE_LINE2":"2 51961  53.2177 154.7981 0001700  70.3012 289.8164 15.08832566 35375","ARG_OF_PERICENTER":"70.3012","TIME_SYSTEM":"UTC","ELEMENT_SET_NO":"999","MEAN_MOTION_DOT":"-0.00001545"},{"TIME_SYSTEM":"UTC","ELEMENT_SET_NO":"999","MEAN_MOTION_DOT":"-0.00000860","MEAN_ANOMALY":"315.6717","INCLINATION":"53.2182","PERIOD":"95.438","TLE_LINE2":"2 51962  53.2182 154.5946 0001850  44.4423 315.6717 15.08837929 35386","ARG_OF_PERICENTER":"44.4423","EPOCH":"2022-10-25T20:20:00.440448","REV_AT_EPOCH":"3538","CLASSIFICATION_TYPE":"U","OBJECT_NAME":"STARLINK-3697","DECAY_DATE":null,"OBJECT_ID":"2022-025G","MEAN_ELEMENT_THEORY":"SGP4","FILE":"3633327","LAUNCH_DATE":"2022-03-09","NORAD_CAT_ID":"51962","CENTER_NAME":"EARTH","MEAN_MOTION":"15.08837929","SITE":"AFETR","TLE_LINE1":"1 51962U 22025G   22298.84722732 -.00000860  00000-0 -35910-4 0  9990","COUNTRY_CODE":"US","RA_OF_ASC_NODE":"154.5946","SEMIMAJOR_AXIS":"6917.887","PERIAPSIS":"538.472","REF_FRAME":"TEME","GP_ID":"216155601","APOAPSIS":"541.032","RCS_SIZE":"LARGE","BSTAR":"-0.00003591000000","ECCENTRICITY":"0.00018500","OBJECT_TYPE":"PAYLOAD","EPHEMERIS_TYPE":"0","MEAN_MOTION_DDOT":"0.0000000000000"},{"TLE_LINE1":"1 51963U 22025H   22298.86466975 -.00000554  00000-0 -16688-4 0  9998","SITE":"AFETR","CENTER_NAME":"EARTH","MEAN_MOTION":"15.08840394","NORAD_CAT_ID":"51963","LAUNCH_DATE":"2022-03-09","RA_OF_ASC_NODE":"154.5189","COUNTRY_CODE":"US","SEMIMAJOR_AXIS":"6917.879","RCS_SIZE":"LARGE","BSTAR":"-0.00001668800000","PERIAPSIS":"538.705","APOAPSIS":"540.783","GP_ID":"216155853","REF_FRAME":"TEME","OBJECT_TYPE":"PAYLOAD","EPHEMERIS_TYPE":"0","ECCENTRICITY":"0.00015020","MEAN_MOTION_DDOT":"0.0000000000000","MEAN_MOTION_DOT":"-0.00000554","ELEMENT_SET_NO":"999","TIME_SYSTEM":"UTC","ARG_OF_PERICENTER":"56.9215","MEAN_ANOMALY":"303.1922","INCLINATION":"53.2158","TLE_LINE2":"2 51963  53.2158 154.5189 0001502  56.9215 303.1922 15.08840394 35380","PERIOD":"95.438","CLASSIFICATION_TYPE":"U","DECAY_DATE":null,"OBJECT_NAME":"STARLINK-3675","EPOCH":"2022-10-25T20:45:07.466400","REV_AT_EPOCH":"3538","MEAN_ELEMENT_THEORY":"SGP4","FILE":"3633327","OBJECT_ID":"2022-025H"},{"MEAN_ANOMALY":"313.9630","INCLINATION":"53.2181","PERIOD":"95.438","TLE_LINE2":"2 51964  53.2181 154.6331 0001974  46.1525 313.9630 15.08831095 35388","ARG_OF_PERICENTER":"46.1525","TIME_SYSTEM":"UTC","ELEMENT_SET_NO":"999","MEAN_MOTION_DOT":"-0.00000059","OBJECT_ID":"2022-025J","MEAN_ELEMENT_THEORY":"SGP4","FILE":"3633327","EPOCH":"2022-10-25T20:08:02.360544","REV_AT_EPOCH":"3538","CLASSIFICATION_TYPE":"U","DECAY_DATE":null,"OBJECT_NAME":"STARLINK-3690","COUNTRY_CODE":"US","RA_OF_ASC_NODE":"154.6331","SEMIMAJOR_AXIS":"6917.908","LAUNCH_DATE":"2022-03-09","NORAD_CAT_ID":"51964","MEAN_MOTION":"15.08831095","CENTER_NAME":"EARTH","TLE_LINE1":"1 51964U 22025J   22298.83891621 -.00000059  00000-0  14432-4 0  9990","SITE":"AFETR","ECCENTRICITY":"0.00019740","OBJECT_TYPE":"PAYLOAD","EPHEMERIS_TYPE":"0","MEAN_MOTION_DDOT":"0.0000000000000","PERIAPSIS":"538.407","REF_FRAME":"TEME","GP_ID":"216156084","APOAPSIS":"541.138","BSTAR":"0.00001443200000","RCS_SIZE":"LARGE"},{"OBJECT_ID":"2022-025K","MEAN_ELEMENT_THEORY":"SGP4","FILE":"3633327","EPOCH":"2022-10-25T20:23:56.700384","REV_AT_EPOCH":"3538","CLASSIFICATION_TYPE":"U","OBJECT_NAME":"STARLINK-3696","DECAY_DATE":null,"MEAN_ANOMALY":"315.4430","INCLINATION":"53.2191","PERIOD":"95.438","TLE_LINE2":"2 51965  53.2191 154.5857 0002043  44.6726 315.4430 15.08833531 35388","ARG_OF_PERICENTER":"44.6726","TIME_SYSTEM":"UTC","ELEMENT_SET_NO":"999","MEAN_MOTION_DOT":"-0.00001258","ECCENTRICITY":"0.00020430","OBJECT_TYPE":"PAYLOAD","EPHEMERIS_TYPE":"0","MEAN_MOTION_DDOT":"0.0000000000000","PERIAPSIS":"538.352","GP_ID":"216155351","REF_FRAME":"TEME","APOAPSIS":"541.178","RCS_SIZE":"MEDIUM","BSTAR":"-0.00006092200000","COUNTRY_CODE":"US","RA_OF_ASC_NODE":"154.5857","SEMIMAJOR_AXIS":"6917.900","LAUNCH_DATE":"2022-03-09","NORAD_CAT_ID":"51965","CENTER_NAME":"EARTH","MEAN_MOTION":"15.08833531","SITE":"AFETR","TLE_LINE1":"1 51965U 22025K   22298.84996181 -.00001258  00000-0 -60922-4 0  9997"},{"ARG_OF_PERICENTER":"54.6218","INCLINATION":"53.2184","MEAN_ANOMALY":"305.4929","TLE_LINE2":"2 51966  53.2184 154.6602 0001666  54.6218 305.4929 15.08828100 35385","PERIOD":"95.438","MEAN_MOTION_DOT":"-0.00001194","ELEMENT_SET_NO":"999","TIME_SYSTEM":"UTC","MEAN_ELEMENT_THEORY":"SGP4","FILE":"3633327","OBJECT_ID":"2022-025L","CLASSIFICATION_TYPE":"U","OBJECT_NAME":"STARLINK-3699","DECAY_DATE":null,"EPOCH":"2022-10-25T19:57:26.525664","REV_AT_EPOCH":"3538","RA_OF_ASC_NODE":"154.6602","COUNTRY_CODE":"US","SEMIMAJOR_AXIS":"6917.917","TLE_LINE1":"1 51966U 22025L   22298.83155701 -.00001194  00000-0 -56933-4 0  9998","SITE":"AFETR","CENTER_NAME":"EARTH","MEAN_MOTION":"15.08828100","NORAD_CAT_ID":"51966","LAUNCH_DATE":"2022-03-09","EPHEMERIS_TYPE":"0","OBJECT_TYPE":"PAYLOAD","ECCENTRICITY":"0.00016660","MEAN_MOTION_DDOT":"0.0000000000000","RCS_SIZE":"LARGE","BSTAR":"-0.00005693300000","PERIAPSIS":"538.629","APOAPSIS":"540.934","GP_ID":"216155102","REF_FRAME":"TEME"}];
